{
  "type": "FeatureCollection",
  "features": [
    {
      "type": "Feature",
      "properties": {
        "name": "Plantio Vivert"
      },
      "geometry": {
        "type": "MultiPolygon",
        "coordinates": [
          [
            [
              [
                -44.89119405983051,
                -21.15144185023129
              ],
              [
                -44.8907293017546,
                -21.15103509997656
              ],
              [
                -44.89115023671322,
                -21.15065843374675
              ],
              [
                -44.89175562018698,
                -21.15090253710415
              ],
              [
                -44.89119405983051,
                -21.15144185023129
              ]
            ]
          ],
          [
            [
              [
                -44.8918142517254,
                -21.15226850704386
              ],
              [
                -44.89079940074731,
                -21.15277616578433
              ],
              [
                -44.89022701333242,
                -21.15233242842719
              ],
              [
                -44.8911086155208,
                -21.15145434911846
              ],
              [
                -44.89190642826565,
                -21.15214488797296
              ],
              [
                -44.8918142517254,
                -21.15226850704386
              ]
            ]
          ],
          [
            [
              [
                -44.89357405427936,
                -21.15175421193603
              ],
              [
                -44.89352958127877,
                -21.15211531196744
              ],
              [
                -44.89372154748571,
                -21.1524622553645
              ],
              [
                -44.89344874840017,
                -21.15342434131303
              ],
              [
                -44.89281038573969,
                -21.15258361783578
              ],
              [
                -44.89310031944588,
                -21.15138508129274
              ],
              [
                -44.89357405427936,
                -21.15175421193603
              ]
            ]
          ],
          [
            [
              [
                -44.89402914267424,
                -21.15438980411314
              ],
              [
                -44.89365860549272,
                -21.1546486173371
              ],
              [
                -44.89338944204534,
                -21.15459564828429
              ],
              [
                -44.89213362885115,
                -21.15352957265947
              ],
              [
                -44.89346571338341,
                -21.15368924915446
              ],
              [
                -44.89402914267424,
                -21.15438980411314
              ]
            ]
          ],
          [
            [
              [
                -44.8941382999363,
                -21.15427991248981
              ],
              [
                -44.893516291328,
                -21.15349339161381
              ],
              [
                -44.8937678628409,
                -21.1525874707603
              ],
              [
                -44.89462945361922,
                -21.1537892962851
              ],
              [
                -44.89449312762311,
                -21.15406092846435
              ],
              [
                -44.8941382999363,
                -21.15427991248981
              ]
            ]
          ],
          [
            [
              [
                -44.89346671208997,
                -21.15367840267045
              ],
              [
                -44.89212428487411,
                -21.1535147676172
              ],
              [
                -44.89187488841159,
                -21.15330818988781
              ],
              [
                -44.89209438489506,
                -21.15268848630846
              ],
              [
                -44.89275699864061,
                -21.15275704683339
              ],
              [
                -44.89346671208997,
                -21.15367840267045
              ]
            ]
          ],
          [
            [
              [
                -44.89256689307969,
                -21.15133321702738
              ],
              [
                -44.89185836441101,
                -21.15201997953124
              ],
              [
                -44.89120672716216,
                -21.15145124657902
              ],
              [
                -44.89177339036116,
                -21.15090612521216
              ],
              [
                -44.89212884767284,
                -21.15103764339844
              ],
              [
                -44.89256689307969,
                -21.15133321702738
              ]
            ]
          ],
          [
            [
              [
                -44.89429830360568,
                -21.15079795773684
              ],
              [
                -44.89445801084877,
                -21.15094607321324
              ],
              [
                -44.89363292151845,
                -21.15170949811844
              ],
              [
                -44.89348798158824,
                -21.15156832331296
              ],
              [
                -44.89429830360568,
                -21.15079795773684
              ]
            ]
          ],
          [
            [
              [
                -44.89022078908421,
                -21.15230385188296
              ],
              [
                -44.88965664503025,
                -21.1517549229556
              ],
              [
                -44.89050316031303,
                -21.15092443775775
              ],
              [
                -44.89108474320408,
                -21.15144824207088
              ],
              [
                -44.89022078908421,
                -21.15230385188296
              ]
            ]
          ],
          [
            [
              [
                -44.89388173763491,
                -21.15264106146528
              ],
              [
                -44.89424672313549,
                -21.15248915420542
              ],
              [
                -44.89478620656186,
                -21.15280993676082
              ],
              [
                -44.89543618814533,
                -21.15296151964095
              ],
              [
                -44.89567958610927,
                -21.15335044858925
              ],
              [
                -44.89478483705608,
                -21.15387787088304
              ],
              [
                -44.89388173763491,
                -21.15264106146528
              ]
            ]
          ],
          [
            [
              [
                -44.89584147580454,
                -21.15349393727548
              ],
              [
                -44.89579003058848,
                -21.15373408156973
              ],
              [
                -44.89557820563423,
                -21.15379952276597
              ],
              [
                -44.89537467387879,
                -21.15385759726096
              ],
              [
                -44.89517103540645,
                -21.15395168674812
              ],
              [
                -44.89502249656418,
                -21.15402390599239
              ],
              [
                -44.89491247090971,
                -21.15416069577722
              ],
              [
                -44.89479587454488,
                -21.15425398517167
              ],
              [
                -44.89474880436237,
                -21.1543543731119
              ],
              [
                -44.89467094460671,
                -21.1544546177085
              ],
              [
                -44.8945927700431,
                -21.15459753605982
              ],
              [
                -44.89451648982379,
                -21.15446178228023
              ],
              [
                -44.89452573813819,
                -21.1541819821005
              ],
              [
                -44.89564559725947,
                -21.15350874458274
              ],
              [
                -44.89584147580454,
                -21.15349393727548
              ]
            ]
          ],
          [
            [
              [
                -44.89485611559381,
                -21.15523492952305
              ],
              [
                -44.89461296279262,
                -21.15496692528944
              ],
              [
                -44.8947005533596,
                -21.15463319862789
              ],
              [
                -44.89484094647861,
                -21.15441167787498
              ],
              [
                -44.89504344010528,
                -21.15422535915248
              ],
              [
                -44.89522415688215,
                -21.15405265351021
              ],
              [
                -44.89541988870119,
                -21.15395877833823
              ],
              [
                -44.89567014427669,
                -21.15389358197966
              ],
              [
                -44.89587394159673,
                -21.15383553479661
              ],
              [
                -44.89577385475781,
                -21.15418209707054
              ],
              [
                -44.8955706221145,
                -21.15424683341165
              ],
              [
                -44.89535944005646,
                -21.15434728033782
              ],
              [
                -44.89521775676818,
                -21.15451174777818
              ],
              [
                -44.89506164080881,
                -21.15471138370404
              ],
              [
                -44.89495152694074,
                -21.15494571780532
              ],
              [
                -44.89485611559381,
                -21.15523492952305
              ]
            ]
          ]
        ]
      }
    }
  ]
}
