{
  "type": "FeatureCollection",
  "name": "Plantio Alma Gerais Vivert",
  "crs": {
    "type": "name",
    "properties": {
      "name": "urn:ogc:def:crs:OGC:1.3:CRS84"
    }
  },
  "features": [
    {
      "type": "Feature",
      "properties": {
        "id": 1,
        "nome": "Talhao 1",
        "area_ha": 0.4669,
        "origem": "Plantio Alma Gerais Vivert.kmz"
      },
      "geometry": {
        "type": "Polygon",
        "coordinates": [
          [
            [-44.89119406, -21.15144185],
            [-44.890729302, -21.1510351],
            [-44.891150237, -21.150658434],
            [-44.89175562, -21.150902537],
            [-44.89119406, -21.15144185]
          ]
        ]
      }
    },
    {
      "type": "Feature",
      "properties": {
        "id": 2,
        "nome": "Talhao 2",
        "area_ha": 1.2918,
        "origem": "Plantio Alma Gerais Vivert.kmz"
      },
      "geometry": {
        "type": "Polygon",
        "coordinates": [
          [
            [-44.891814252, -21.152268507],
            [-44.890799401, -21.152776166],
            [-44.890227013, -21.152332428],
            [-44.891108616, -21.151454349],
            [-44.891906428, -21.152144888],
            [-44.891814252, -21.152268507]
          ]
        ]
      }
    },
    {
      "type": "Feature",
      "properties": {
        "id": 3,
        "nome": "Talhao 3",
        "area_ha": 1.2088,
        "origem": "Plantio Alma Gerais Vivert.kmz"
      },
      "geometry": {
        "type": "Polygon",
        "coordinates": [
          [
            [-44.893574054, -21.151754212],
            [-44.893529581, -21.152115312],
            [-44.893721547, -21.152462255],
            [-44.893448748, -21.153424341],
            [-44.892810386, -21.152583618],
            [-44.893100319, -21.151385081],
            [-44.893574054, -21.151754212]
          ]
        ]
      }
    },
    {
      "type": "Feature",
      "properties": {
        "id": 4,
        "nome": "Talhao 4",
        "area_ha": 1.0799,
        "origem": "Plantio Alma Gerais Vivert.kmz"
      },
      "geometry": {
        "type": "Polygon",
        "coordinates": [
          [
            [-44.894029143, -21.154389804],
            [-44.893658605, -21.154648617],
            [-44.893389442, -21.154595648],
            [-44.892133629, -21.153529573],
            [-44.893465713, -21.153689249],
            [-44.894029143, -21.154389804]
          ]
        ]
      }
    },
    {
      "type": "Feature",
      "properties": {
        "id": 5,
        "nome": "Talhao 5",
        "area_ha": 1.0614,
        "origem": "Plantio Alma Gerais Vivert.kmz"
      },
      "geometry": {
        "type": "Polygon",
        "coordinates": [
          [
            [-44.8941383, -21.154279912],
            [-44.893516291, -21.153493392],
            [-44.893767863, -21.152587471],
            [-44.894629454, -21.153789296],
            [-44.894493128, -21.154060928],
            [-44.8941383, -21.154279912]
          ]
        ]
      }
    },
    {
      "type": "Feature",
      "properties": {
        "id": 6,
        "nome": "Talhao 6",
        "area_ha": 1.0759,
        "origem": "Plantio Alma Gerais Vivert.kmz"
      },
      "geometry": {
        "type": "Polygon",
        "coordinates": [
          [
            [-44.893466712, -21.153678403],
            [-44.892124285, -21.153514768],
            [-44.891874888, -21.15330819],
            [-44.892094385, -21.152688486],
            [-44.892756999, -21.152757047],
            [-44.893466712, -21.153678403]
          ]
        ]
      }
    },
    {
      "type": "Feature",
      "properties": {
        "id": 7,
        "nome": "Talhao 7",
        "area_ha": 0.9067,
        "origem": "Plantio Alma Gerais Vivert.kmz"
      },
      "geometry": {
        "type": "Polygon",
        "coordinates": [
          [
            [-44.892566893, -21.151333217],
            [-44.891858364, -21.15201998],
            [-44.891206727, -21.151451247],
            [-44.89177339, -21.150906125],
            [-44.892128848, -21.151037643],
            [-44.892566893, -21.151333217]
          ]
        ]
      }
    },
    {
      "type": "Feature",
      "properties": {
        "id": 8,
        "nome": "Talhao 8",
        "area_ha": 0.2711,
        "origem": "Plantio Alma Gerais Vivert.kmz"
      },
      "geometry": {
        "type": "Polygon",
        "coordinates": [
          [
            [-44.894298304, -21.150797958],
            [-44.894458011, -21.150946073],
            [-44.893632922, -21.151709498],
            [-44.893487982, -21.151568323],
            [-44.894298304, -21.150797958]
          ]
        ]
      }
    },
    {
      "type": "Feature",
      "properties": {
        "id": 9,
        "nome": "Talhao 9",
        "area_ha": 1.0859,
        "origem": "Plantio Alma Gerais Vivert.kmz"
      },
      "geometry": {
        "type": "Polygon",
        "coordinates": [
          [
            [-44.890220789, -21.152303852],
            [-44.889656645, -21.151754923],
            [-44.89050316, -21.150924438],
            [-44.891084743, -21.151448242],
            [-44.890220789, -21.152303852]
          ]
        ]
      }
    },
    {
      "type": "Feature",
      "properties": {
        "id": 10,
        "nome": "Talhao 10",
        "area_ha": 1.3468,
        "origem": "Plantio Alma Gerais Vivert.kmz"
      },
      "geometry": {
        "type": "Polygon",
        "coordinates": [
          [
            [-44.893881738, -21.152641061],
            [-44.894246723, -21.152489154],
            [-44.894786207, -21.152809937],
            [-44.895436188, -21.15296152],
            [-44.895679586, -21.153350449],
            [-44.894784837, -21.153877871],
            [-44.893881738, -21.152641061]
          ]
        ]
      }
    }
  ]
}
